{"type": "FeatureCollection", "features": [ {"type": "Feature", "properties": {"norad_id": 31538, "name": "FENGYUN 1C DEB", "group": "fengyun-1c-debris", "lat": 42.8294430197167, "lon": 33.16696618991119, "alt_km": 584.1209648349641, "timestamp": "2025-12-03T06:58:43.520889+00:00", "meta": {"OBJECT_NAME": "FENGYUN 1C DEB", "OBJECT_ID": "1999-025BYD", "EPOCH": "2025-11-18T21:37:36.814656", "MEAN_MOTION": 14.96885168, "ECCENTRICITY": 0.00235351, "INCLINATION": 98.2479, "RA_OF_ASC_NODE": 190.2519, "ARG_OF_PERICENTER": 356.6213, "MEAN_ANOMALY": 3.4844, "EPHEMERIS_TYPE": 0, "CLASSIFICATION_TYPE": "U", "NORAD_CAT_ID": 31538, "ELEMENT_SET_NO": 999, "REV_AT_EPOCH": 66646, "BSTAR": 0.0047226763, "MEAN_MOTION_DOT": 0.00054817, "MEAN_MOTION_DDOT": 0}, "tle": {"line1": "1 31538U 99025BYD 25322.90112054  .00054817  00000+0  47227-2 0  9999", "line2": "2 31538  98.2479 190.2519 0023535 356.6213   3.4844 14.96885168666469"}}, "geometry": {"type": "Point", "coordinates": [33.16696618991119, 42.8294430197167]}}, {"type": "Feature", "properties": {"norad_id": 31540, "name": "FENGYUN 1C DEB", "group": "fengyun-1c-debris", "lat": -19.398434954951593, "lon": 138.97437029520603, "alt_km": 558.1794307887249, "timestamp": "2025-12-03T06:58:43.520899+00:00", "meta": {"OBJECT_NAME": "FENGYUN 1C DEB", "OBJECT_ID": "1999-025BYF", "EPOCH": "2025-11-30T16:47:12.586272", "MEAN_MOTION": 14.65204922, "ECCENTRICITY": 0.01774904, "INCLINATION": 99.0563, "RA_OF_ASC_NODE": 132.9014, "ARG_OF_PERICENTER": 338.1522, "MEAN_ANOMALY": 21.2175, "EPHEMERIS_TYPE": 0, "CLASSIFICATION_TYPE": "U", "NORAD_CAT_ID": 31540, "ELEMENT_SET_NO": 999, "REV_AT_EPOCH": 98125, "BSTAR": 0.00061965123, "MEAN_MOTION_DOT": 4.14e-05, "MEAN_MOTION_DDOT": 0}, "tle": {"line1": "1 31540U 99025BYF 25334.69945123  .00004140  00000+0  61965-3 0  9992", "line2": "2 31540  99.0563 132.9014 0177490 338.1522  21.2175 14.65204922981257"}}, "geometry": {"type": "Point", "coordinates": [138.97437029520603, -19.398434954951593]}}, {"type": "Feature", "properties": {"norad_id": 31541, "name": "FENGYUN 1C DEB", "group": "fengyun-1c-debris", "lat": 32.15182248335873, "lon": -55.52834714538492, "alt_km": 692.9520195243676, "timestamp": "2025-12-03T06:58:43.520909+00:00", "meta": {"OBJECT_NAME": "FENGYUN 1C DEB", "OBJECT_ID": "1999-025BYG", "EPOCH": "2025-12-01T08:30:59.377824", "MEAN_MOTION": 14.68534389, "ECCENTRICITY": 0.00787181, "INCLINATION": 98.9786, "RA_OF_ASC_NODE": 116.6445, "ARG_OF_PERICENTER": 275.4502, "MEAN_ANOMALY": 83.7725, "EPHEMERIS_TYPE": 0, "CLASSIFICATION_TYPE": "U", "NORAD_CAT_ID": 31541, "ELEMENT_SET_NO": 999, "REV_AT_EPOCH": 98256, "BSTAR": 0.0014195856, "MEAN_MOTION_DOT": 8.577e-05, "MEAN_MOTION_DDOT": 0}, "tle": {"line1": "1 31541U 99025BYG 25335.35485391  .00008577  00000+0  14196-2 0  9994", "line2": "2 31541  98.9786 116.6445 0078718 275.4502  83.7725 14.68534389982569"}}, "geometry": {"type": "Point", "coordinates": [-55.52834714538492, 32.15182248335873]}}, {"type": "Feature", "properties": {"norad_id": 31542, "name": "FENGYUN 1C DEB", "group": "fengyun-1c-debris", "lat": 36.80211730622171, "lon": -142.01580724147723, "alt_km": 814.2397781289683, "timestamp": "2025-12-03T06:58:43.520919+00:00", "meta": {"OBJECT_NAME": "FENGYUN 1C DEB", "OBJECT_ID": "1999-025BYH", "EPOCH": "2025-12-02T10:03:05.255712", "MEAN_MOTION": 14.22699156, "ECCENTRICITY": 0.00470374, "INCLINATION": 98.733, "RA_OF_ASC_NODE": 30.5165, "ARG_OF_PERICENTER": 236.5507, "MEAN_ANOMALY": 123.117, "EPHEMERIS_TYPE": 0, "CLASSIFICATION_TYPE": "U", "NORAD_CAT_ID": 31542, "ELEMENT_SET_NO": 999, "REV_AT_EPOCH": 95793, "BSTAR": 0.0016591711, "MEAN_MOTION_DOT": 3.715e-05, "MEAN_MOTION_DDOT": 0}, "tle": {"line1": "1 31542U 99025BYH 25336.41881083  .00003715  00000+0  16592-2 0  9992", "line2": "2 31542  98.7330  30.5165 0047037 236.5507 123.1170 14.22699156957939"}}, "geometry": {"type": "Point", "coordinates": [-142.01580724147723, 36.80211730622171]}}, {"type": "Feature", "properties": {"norad_id": 31544, "name": "FENGYUN 1C DEB", "group": "fengyun-1c-debris", "lat": 19.739230983571364, "lon": -148.13672457584286, "alt_km": 861.2936009369005, "timestamp": "2025-12-03T06:58:43.520929+00:00", "meta": {"OBJECT_NAME": "FENGYUN 1C DEB", "OBJECT_ID": "1999-025BYK", "EPOCH": "2025-11-29T13:55:50.953440", "MEAN_MOTION": 14.14279568, "ECCENTRICITY": 0.00313575, "INCLINATION": 98.831, "RA_OF_ASC_NODE": 24.9985, "ARG_OF_PERICENTER": 307.4599, "MEAN_ANOMALY": 52.3723, "EPHEMERIS_TYPE": 0, "CLASSIFICATION_TYPE": "U", "NORAD_CAT_ID": 31544, "ELEMENT_SET_NO": 999, "REV_AT_EPOCH": 95571, "BSTAR": 0.00072227693, "MEAN_MOTION_DOT": 1.342e-05, "MEAN_MOTION_DDOT": 0}, "tle": {"line1": "1 31544U 99025BYK 25333.58045085  .00001342  00000+0  72228-3 0  9996", "line2": "2 31544  98.8310  24.9985 0031357 307.4599  52.3723 14.14279568955717"}}, "geometry": {"type": "Point", "coordinates": [-148.13672457584286, 19.739230983571364]}}, {"type": "Feature", "properties": {"norad_id": 31546, "name": "FENGYUN 1C DEB", "group": "fengyun-1c-debris", "lat": 6.763579849586018, "lon": 46.55634862273898, "alt_km": 948.4918430768994, "timestamp": "2025-12-03T06:58:43.520939+00:00", "meta": {"OBJECT_NAME": "FENGYUN 1C DEB", "OBJECT_ID": "1999-025BYM", "EPOCH": "2025-12-02T03:45:12.580704", "MEAN_MOTION": 14.12994209, "ECCENTRICITY": 0.01468756, "INCLINATION": 98.2454, "RA_OF_ASC_NODE": 46.4962, "ARG_OF_PERICENTER": 167.0924, "MEAN_ANOMALY": 193.4075, "EPHEMERIS_TYPE": 0, "CLASSIFICATION_TYPE": "U", "NORAD_CAT_ID": 31546, "ELEMENT_SET_NO": 999, "REV_AT_EPOCH": 94639, "BSTAR": 0.002173763, "MEAN_MOTION_DOT": 4.454e-05, "MEAN_MOTION_DDOT": 0}, "tle": {"line1": "1 31546U 99025BYM 25336.15639561  .00004454  00000+0  21738-2 0  9998", "line2": "2 31546  98.2454  46.4962 0146875 167.0924 193.4075 14.12994209946395"}}, "geometry": {"type": "Point", "coordinates": [46.55634862273898, 6.763579849586018]}}, {"type": "Feature", "properties": {"norad_id": 31547, "name": "FENGYUN 1C DEB", "group": "fengyun-1c-debris", "lat": 23.006987150255302, "lon": -155.34335322325813, "alt_km": 835.6145839017436, "timestamp": "2025-12-03T06:58:43.520974+00:00", "meta": {"OBJECT_NAME": "FENGYUN 1C DEB", "OBJECT_ID": "1999-025BYN", "EPOCH": "2025-12-02T08:18:10.667520", "MEAN_MOTION": 14.23031642, "ECCENTRICITY": 0.00531782, "INCLINATION": 99.0877, "RA_OF_ASC_NODE": 19.785, "ARG_OF_PERICENTER": 282.8408, "MEAN_ANOMALY": 76.6831, "EPHEMERIS_TYPE": 0, "CLASSIFICATION_TYPE": "U", "NORAD_CAT_ID": 31547, "ELEMENT_SET_NO": 999, "REV_AT_EPOCH": 63869, "BSTAR": 0.0017799919, "MEAN_MOTION_DOT": 4.024e-05, "MEAN_MOTION_DDOT": 0}, "tle": {"line1": "1 31547U 99025BYN 25336.34595680  .00004024  00000+0  17800-2 0  9991", "line2": "2 31547  99.0877  19.7850 0053178 282.8408  76.6831 14.23031642638697"}}, "geometry": {"type": "Point", "coordinates": [-155.34335322325813, 23.006987150255302]}}, {"type": "Feature", "properties": {"norad_id": 31550, "name": "FENGYUN 1C DEB", "group": "fengyun-1c-debris", "lat": 64.02281885159, "lon": 174.47737223938347, "alt_km": 886.8875953611723, "timestamp": "2025-12-03T06:58:43.520985+00:00", "meta": {"OBJECT_NAME": "FENGYUN 1C DEB", "OBJECT_ID": "1999-025BYR", "EPOCH": "2025-12-02T18:46:06.470976", "MEAN_MOTION": 14.40106177, "ECCENTRICITY": 0.0190581, "INCLINATION": 98.311, "RA_OF_ASC_NODE": 336.5252, "ARG_OF_PERICENTER": 303.0298, "MEAN_ANOMALY": 55.2707, "EPHEMERIS_TYPE": 0, "CLASSIFICATION_TYPE": "U", "NORAD_CAT_ID": 31550, "ELEMENT_SET_NO": 999, "REV_AT_EPOCH": 65311, "BSTAR": 0.0012304, "MEAN_MOTION_DOT": 4.763e-05, "MEAN_MOTION_DDOT": 0}, "tle": {"line1": "1 31550U 99025BYR 25336.78201934  .00004763  00000+0  12304-2 0  9993", "line2": "2 31550  98.3110 336.5252 0190581 303.0298  55.2707 14.40106177653116"}}, "geometry": {"type": "Point", "coordinates": [174.47737223938347, 64.02281885159]}}, {"type": "Feature", "properties": {"norad_id": 31552, "name": "FENGYUN 1C DEB", "group": "fengyun-1c-debris", "lat": -78.8362990335717, "lon": -131.24680828475985, "alt_km": 799.7873799033605, "timestamp": "2025-12-03T06:58:43.520995+00:00", "meta": {"OBJECT_NAME": "FENGYUN 1C DEB", "OBJECT_ID": "1999-025BYT", "EPOCH": "2025-11-30T14:37:50.555424", "MEAN_MOTION": 14.45288601, "ECCENTRICITY": 0.0086373, "INCLINATION": 98.621, "RA_OF_ASC_NODE": 96.2726, "ARG_OF_PERICENTER": 58.268, "MEAN_ANOMALY": 302.6892, "EPHEMERIS_TYPE": 0, "CLASSIFICATION_TYPE": "U", "NORAD_CAT_ID": 31552, "ELEMENT_SET_NO": 999, "REV_AT_EPOCH": 95701, "BSTAR": 0.00311, "MEAN_MOTION_DOT": 0.00011399, "MEAN_MOTION_DDOT": 0}, "tle": {"line1": "1 31552U 99025BYT 25334.60961291  .00011399  00000+0  31100-2 0  9991", "line2": "2 31552  98.6210  96.2726 0086373  58.2680 302.6892 14.45288601957013"}}, "geometry": {"type": "Point", "coordinates": [-131.24680828475985, -78.8362990335717]}}, {"type": "Feature", "properties": {"norad_id": 31553, "name": "FENGYUN 1C DEB", "group": "fengyun-1c-debris", "lat": -23.58182983364301, "lon": 35.69000739161362, "alt_km": 816.8944338493293, "timestamp": "2025-12-03T06:58:43.521005+00:00", "meta": {"OBJECT_NAME": "FENGYUN 1C DEB", "OBJECT_ID": "1999-025BYU", "EPOCH": "2025-12-01T15:30:06.804576", "MEAN_MOTION": 14.30003265, "ECCENTRICITY": 0.00311567, "INCLINATION": 99.005, "RA_OF_ASC_NODE": 30.0201, "ARG_OF_PERICENTER": 133.4764, "MEAN_ANOMALY": 19.8318, "EPHEMERIS_TYPE": 0, "CLASSIFICATION_TYPE": "U", "NORAD_CAT_ID": 31553, "ELEMENT_SET_NO": 999, "REV_AT_EPOCH": 95751, "BSTAR": 0.0016381732, "MEAN_MOTION_DOT": 4.204e-05, "MEAN_MOTION_DDOT": 0}, "tle": {"line1": "1 31553U 99025BYU 25335.64591209  .00004204  00000+0  16382-2 0  9997", "line2": "2 31553  99.0050  30.0201 0031156 133.4764  19.8318 14.30003265957513"}}, "geometry": {"type": "Point", "coordinates": [35.69000739161362, -23.58182983364301]}}]}